[{"OBJECT_NAME":"LEMUR-1","OBJECT_ID":"2014-033AL","EPOCH":"2026-04-27T03:44:15.120384","MEAN_MOTION":14.8501873,"ECCENTRICITY":0.0047281,"INCLINATION":97.781,"RA_OF_ASC_NODE":268.1217,"ARG_OF_PERICENTER":244.8263,"MEAN_ANOMALY":114.8044,"EPHEMERIS_TYPE":0,"CLASSIFICATION_TYPE":"U","NORAD_CAT_ID":40044,"ELEMENT_SET_NO":999,"REV_AT_EPOCH":63789,"BSTAR":0.00028258,"MEAN_MOTION_DOT":2.404e-5,"MEAN_MOTION_DDOT":0},{"OBJECT_NAME":"LEMUR-2-GREENBERG","OBJECT_ID":"2017-042N","EPOCH":"2026-04-27T03:44:19.480128","MEAN_MOTION":15.29711093,"ECCENTRICITY":0.000944,"INCLINATION":97.381,"RA_OF_ASC_NODE":298.0844,"ARG_OF_PERICENTER":177.7975,"MEAN_ANOMALY":182.3309,"EPHEMERIS_TYPE":0,"CLASSIFICATION_TYPE":"U","NORAD_CAT_ID":42837,"ELEMENT_SET_NO":999,"REV_AT_EPOCH":48058,"BSTAR":0.00072889,"MEAN_MOTION_DOT":0.00020966,"MEAN_MOTION_DDOT":0},{"OBJECT_NAME":"LEMUR-2-ANDIS","OBJECT_ID":"2017-042P","EPOCH":"2026-04-27T00:47:40.157952","MEAN_MOTION":15.32742365,"ECCENTRICITY":0.0009438,"INCLINATION":97.3677,"RA_OF_ASC_NODE":297.9858,"ARG_OF_PERICENTER":181.1837,"MEAN_ANOMALY":178.9384,"EPHEMERIS_TYPE":0,"CLASSIFICATION_TYPE":"U","NORAD_CAT_ID":42838,"ELEMENT_SET_NO":999,"REV_AT_EPOCH":48061,"BSTAR":0.00073844,"MEAN_MOTION_DOT":0.00023348,"MEAN_MOTION_DDOT":0},{"OBJECT_NAME":"LEMUR-2-MONSON","OBJECT_ID":"2017-042Q","EPOCH":"2026-04-27T01:21:46.565280","MEAN_MOTION":15.26558696,"ECCENTRICITY":0.0007369,"INCLINATION":97.4067,"RA_OF_ASC_NODE":298.0304,"ARG_OF_PERICENTER":165.3533,"MEAN_ANOMALY":194.792,"EPHEMERIS_TYPE":0,"CLASSIFICATION_TYPE":"U","NORAD_CAT_ID":42839,"ELEMENT_SET_NO":999,"REV_AT_EPOCH":48036,"BSTAR":0.00057772,"MEAN_MOTION_DOT":0.0001506,"MEAN_MOTION_DDOT":0},{"OBJECT_NAME":"LEMUR-2-FURIAUS","OBJECT_ID":"2017-042R","EPOCH":"2026-04-27T01:06:34.869024","MEAN_MOTION":15.28481934,"ECCENTRICITY":0.0006919,"INCLINATION":97.3766,"RA_OF_ASC_NODE":296.0494,"ARG_OF_PERICENTER":236.3862,"MEAN_ANOMALY":123.6718,"EPHEMERIS_TYPE":0,"CLASSIFICATION_TYPE":"U","NORAD_CAT_ID":42840,"ELEMENT_SET_NO":999,"REV_AT_EPOCH":48039,"BSTAR":0.00085341,"MEAN_MOTION_DOT":0.00023647,"MEAN_MOTION_DDOT":0},{"OBJECT_NAME":"LEMUR-2-PETERG","OBJECT_ID":"2017-042S","EPOCH":"2026-04-27T01:11:55.491648","MEAN_MOTION":15.31830545,"ECCENTRICITY":0.0004828,"INCLINATION":97.3995,"RA_OF_ASC_NODE":302.084,"ARG_OF_PERICENTER":150.7379,"MEAN_ANOMALY":209.4133,"EPHEMERIS_TYPE":0,"CLASSIFICATION_TYPE":"U","NORAD_CAT_ID":42841,"ELEMENT_SET_NO":999,"REV_AT_EPOCH":48060,"BSTAR":0.00065697,"MEAN_MOTION_DOT":0.0002015,"MEAN_MOTION_DDOT":0},{"OBJECT_NAME":"LEMUR-2-DEMBITZ","OBJECT_ID":"2017-042T","EPOCH":"2026-04-27T01:40:54.548256","MEAN_MOTION":15.28692775,"ECCENTRICITY":0.000696,"INCLINATION":97.3824,"RA_OF_ASC_NODE":299.0494,"ARG_OF_PERICENTER":187.9823,"MEAN_ANOMALY":172.1308,"EPHEMERIS_TYPE":0,"CLASSIFICATION_TYPE":"U","NORAD_CAT_ID":42842,"ELEMENT_SET_NO":999,"REV_AT_EPOCH":48053,"BSTAR":0.00062356,"MEAN_MOTION_DOT":0.00017355,"MEAN_MOTION_DDOT":0},{"OBJECT_NAME":"LEMUR-2-ZACHARY","OBJECT_ID":"2017-042W","EPOCH":"2026-04-27T01:26:42.779904","MEAN_MOTION":15.46029459,"ECCENTRICITY":0.0004138,"INCLINATION":97.3641,"RA_OF_ASC_NODE":307.7698,"ARG_OF_PERICENTER":185.3977,"MEAN_ANOMALY":174.7228,"EPHEMERIS_TYPE":0,"CLASSIFICATION_TYPE":"U","NORAD_CAT_ID":42845,"ELEMENT_SET_NO":999,"REV_AT_EPOCH":48129,"BSTAR":0.00092178,"MEAN_MOTION_DOT":0.00045129,"MEAN_MOTION_DDOT":0},{"OBJECT_NAME":"LEMUR-2-KADI","OBJECT_ID":"2018-014E","EPOCH":"2026-04-27T01:07:08.031936","MEAN_MOTION":15.76882365,"ECCENTRICITY":0.0006745,"INCLINATION":97.4561,"RA_OF_ASC_NODE":44.9336,"ARG_OF_PERICENTER":97.1976,"MEAN_ANOMALY":263.0057,"EPHEMERIS_TYPE":0,"CLASSIFICATION_TYPE":"U","NORAD_CAT_ID":43184,"ELEMENT_SET_NO":999,"REV_AT_EPOCH":45297,"BSTAR":0.001238,"MEAN_MOTION_DOT":0.0020368,"MEAN_MOTION_DDOT":0},{"OBJECT_NAME":"LEMUR-2-AMANDA-SVANTE","OBJECT_ID":"2021-034B","EPOCH":"2026-04-27T04:11:22.849728","MEAN_MOTION":15.31317408,"ECCENTRICITY":0.0003989,"INCLINATION":97.5781,"RA_OF_ASC_NODE":194.2359,"ARG_OF_PERICENTER":95.4285,"MEAN_ANOMALY":264.7411,"EPHEMERIS_TYPE":0,"CLASSIFICATION_TYPE":"U","NORAD_CAT_ID":48269,"ELEMENT_SET_NO":999,"REV_AT_EPOCH":27324,"BSTAR":0.0012419,"MEAN_MOTION_DOT":0.00037637,"MEAN_MOTION_DDOT":0},{"OBJECT_NAME":"LEMUR-2-SPECIAL-K","OBJECT_ID":"2021-034F","EPOCH":"2026-04-26T20:03:25.655040","MEAN_MOTION":15.53021069,"ECCENTRICITY":0.0002277,"INCLINATION":97.566,"RA_OF_ASC_NODE":200.4915,"ARG_OF_PERICENTER":162.5711,"MEAN_ANOMALY":197.562,"EPHEMERIS_TYPE":0,"CLASSIFICATION_TYPE":"U","NORAD_CAT_ID":48273,"ELEMENT_SET_NO":999,"REV_AT_EPOCH":27369,"BSTAR":0.001522,"MEAN_MOTION_DOT":0.00095888,"MEAN_MOTION_DDOT":0},{"OBJECT_NAME":"LEMUR-2-EMBRIONOVIS","OBJECT_ID":"2023-084AQ","EPOCH":"2026-04-26T23:03:43.538112","MEAN_MOTION":15.36203519,"ECCENTRICITY":0.0010108,"INCLINATION":97.6215,"RA_OF_ASC_NODE":259.27,"ARG_OF_PERICENTER":133.6699,"MEAN_ANOMALY":226.5384,"EPHEMERIS_TYPE":0,"CLASSIFICATION_TYPE":"U","NORAD_CAT_ID":56970,"ELEMENT_SET_NO":999,"REV_AT_EPOCH":15981,"BSTAR":0.0004579,"MEAN_MOTION_DOT":0.00016111,"MEAN_MOTION_DDOT":0},{"OBJECT_NAME":"LEMUR-2-MANO","OBJECT_ID":"2023-100E","EPOCH":"2026-04-27T02:08:35.399040","MEAN_MOTION":15.8020624,"ECCENTRICITY":0.0013602,"INCLINATION":99.4434,"RA_OF_ASC_NODE":156.4398,"ARG_OF_PERICENTER":171.5795,"MEAN_ANOMALY":188.5696,"EPHEMERIS_TYPE":0,"CLASSIFICATION_TYPE":"U","NORAD_CAT_ID":57390,"ELEMENT_SET_NO":999,"REV_AT_EPOCH":15407,"BSTAR":0.0018492,"MEAN_MOTION_DOT":0.00361188,"MEAN_MOTION_DDOT":0},{"OBJECT_NAME":"LEMUR-2-DEVERILL-M-T","OBJECT_ID":"2023-100F","EPOCH":"2026-04-27T01:10:08.079168","MEAN_MOTION":15.37278625,"ECCENTRICITY":0.0006789,"INCLINATION":99.4523,"RA_OF_ASC_NODE":141.1551,"ARG_OF_PERICENTER":199.2081,"MEAN_ANOMALY":160.8902,"EPHEMERIS_TYPE":0,"CLASSIFICATION_TYPE":"U","NORAD_CAT_ID":57391,"ELEMENT_SET_NO":999,"REV_AT_EPOCH":15338,"BSTAR":0.00070624,"MEAN_MOTION_DOT":0.00025759,"MEAN_MOTION_DDOT":0},{"OBJECT_NAME":"LEMUR-2-BASS","OBJECT_ID":"2023-174D","EPOCH":"2026-04-27T05:05:27.231936","MEAN_MOTION":15.41451084,"ECCENTRICITY":0.000645,"INCLINATION":97.3846,"RA_OF_ASC_NODE":201.2811,"ARG_OF_PERICENTER":5.141,"MEAN_ANOMALY":354.9902,"EPHEMERIS_TYPE":0,"CLASSIFICATION_TYPE":"U","NORAD_CAT_ID":58259,"ELEMENT_SET_NO":999,"REV_AT_EPOCH":13750,"BSTAR":0.00048478,"MEAN_MOTION_DOT":0.00020245,"MEAN_MOTION_DDOT":0},{"OBJECT_NAME":"LEMUR-2-JK0903EM1407","OBJECT_ID":"2023-174CJ","EPOCH":"2026-04-26T18:24:05.444352","MEAN_MOTION":15.49128009,"ECCENTRICITY":0.00037016,"INCLINATION":97.3894,"RA_OF_ASC_NODE":205.9108,"ARG_OF_PERICENTER":291.3458,"MEAN_ANOMALY":68.7398,"EPHEMERIS_TYPE":0,"CLASSIFICATION_TYPE":"U","NORAD_CAT_ID":58336,"ELEMENT_SET_NO":999,"REV_AT_EPOCH":13776,"BSTAR":0.00055190718,"MEAN_MOTION_DOT":0.00029981,"MEAN_MOTION_DDOT":0}]
