LEMUR-1                 
1 40044U 14033AL  26117.15573056  .00002404  00000+0  28258-3 0  9999
2 40044  97.7810 268.1217 0047281 244.8263 114.8044 14.85018730637896
LEMUR-2-GREENBERG       
1 42837U 17042N   26117.15578102  .00020966  00000+0  72889-3 0  9993
2 42837  97.3810 298.0844 0009440 177.7975 182.3309 15.29711093480588
LEMUR-2-ANDIS           
1 42838U 17042P   26117.03310368  .00023348  00000+0  73844-3 0  9998
2 42838  97.3677 297.9858 0009438 181.1837 178.9384 15.32742365480614
LEMUR-2-MONSON          
1 42839U 17042Q   26117.05678895  .00015060  00000+0  57772-3 0  9997
2 42839  97.4067 298.0304 0007369 165.3533 194.7920 15.26558696480364
LEMUR-2-FURIAUS         
1 42840U 17042R   26117.04623691  .00023647  00000+0  85341-3 0  9995
2 42840  97.3766 296.0494 0006919 236.3862 123.6718 15.28481934480394
LEMUR-2-PETERG          
1 42841U 17042S   26117.04994782  .00020150  00000+0  65697-3 0  9996
2 42841  97.3995 302.0840 0004828 150.7379 209.4133 15.31830545480609
LEMUR-2-DEMBITZ         
1 42842U 17042T   26117.07007579  .00017355  00000+0  62356-3 0  9991
2 42842  97.3824 299.0494 0006960 187.9823 172.1308 15.28692775480535
LEMUR-2-ZACHARY         
1 42845U 17042W   26117.06021736  .00045129  00000+0  92178-3 0  9999
2 42845  97.3641 307.7698 0004138 185.3977 174.7228 15.46029459481291
LEMUR-2-KADI            
1 43184U 18014E   26117.04662074  .00203680  00000+0  12380-2 0  9994
2 43184  97.4561  44.9336 0006745  97.1976 263.0057 15.76882365452975
LEMUR-2-AMANDA-SVANTE   
1 48269U 21034B   26117.17457002  .00037637  00000+0  12419-2 0  9996
2 48269  97.5781 194.2359 0003989  95.4285 264.7411 15.31317408273249
LEMUR-2-SPECIAL-K       
1 48273U 21034F   26116.83571360  .00095888  00000+0  15220-2 0  9992
2 48273  97.5660 200.4915 0002277 162.5711 197.5620 15.53021069273690
LEMUR-2-EMBRIONOVIS     
1 56970U 23084AQ  26116.96092058  .00016111  00000+0  45790-3 0  9996
2 56970  97.6215 259.2700 0010108 133.6699 226.5384 15.36203519159810
LEMUR-2-MANO            
1 57390U 23100E   26117.08929860  .00361188  00000+0  18492-2 0  9991
2 57390  99.4434 156.4398 0013602 171.5795 188.5696 15.80206240154070
LEMUR-2-DEVERILL-M-T    
1 57391U 23100F   26117.04870462  .00025759  00000+0  70624-3 0  9998
2 57391  99.4523 141.1551 0006789 199.2081 160.8902 15.37278625153389
LEMUR-2-BASS            
1 58259U 23174D   26117.21212074  .00020245  00000+0  48478-3 0  9998
2 58259  97.3846 201.2811 0006450   5.1410 354.9902 15.41451084137500
LEMUR-2-JK0903EM1407    
1 58336U 23174CJ  26116.76672968  .00029981  00000+0  55191-3 0  9991
2 58336  97.3894 205.9108 0003701 291.3458  68.7398 15.49128009137769
